{
  "type": "FeatureCollection",
  "features": [
    {
      "type": "Feature",
      "properties": {
        "norad_id": 25590,
        "name": "COSMOS 2361",
        "group": "musson",
        "lat": -81.32762207521468,
        "lon": -71.54834320457111,
        "alt_km": 973.9386486819949,
        "timestamp": "2025-12-14T09:36:23.306414+00:00",
        "meta_object_name": "COSMOS 2361",
        "meta_object_id": "1998-076A",
        "meta_epoch": "2025-12-13T11:50:21.093216",
        "meta_mean_motion": 13.73217612,
        "meta_eccentricity": 0.00300642,
        "meta_inclination": 82.9339,
        "meta_ra_of_asc_node": 343.529,
        "meta_arg_of_pericenter": 263.4152,
        "meta_mean_anomaly": 210.3865,
        "meta_ephemeris_type": 0,
        "meta_classification_type": "U",
        "meta_norad_cat_id": 25590,
        "meta_element_set_no": 999,
        "meta_rev_at_epoch": 35121,
        "meta_bstar": 9.3866518e-05,
        "meta_mean_motion_dot": 1.02e-06,
        "meta_mean_motion_ddot": 0,
        "tle_line1": "1 25590U 98076A   25347.49329969  .00000102  00000+0  93867-4 0  9992",
        "tle_line2": "2 25590  82.9339 343.5290 0030064 263.4152 210.3865 13.73217612351219"
      },
      "geometry": {
        "type": "Point",
        "coordinates": [
          -71.54834320457111,
          -81.32762207521468
        ]
      }
    },
    {
      "type": "Feature",
      "properties": {
        "norad_id": 26818,
        "name": "COSMOS 2378",
        "group": "musson",
        "lat": -6.783076050828065,
        "lon": -2.3522574887761922,
        "alt_km": 1009.7530107365346,
        "timestamp": "2025-12-14T09:36:23.306435+00:00",
        "meta_object_name": "COSMOS 2378",
        "meta_object_id": "2001-023A",
        "meta_epoch": "2025-12-13T13:14:49.392384",
        "meta_mean_motion": 13.74142086,
        "meta_eccentricity": 0.00324421,
        "meta_inclination": 82.9272,
        "meta_ra_of_asc_node": 359.1226,
        "meta_arg_of_pericenter": 202.6183,
        "meta_mean_anomaly": 276.345,
        "meta_ephemeris_type": 0,
        "meta_classification_type": "U",
        "meta_norad_cat_id": 26818,
        "meta_element_set_no": 999,
        "meta_rev_at_epoch": 22934,
        "meta_bstar": 6.6332832e-05,
        "meta_mean_motion_dot": 7.8e-07,
        "meta_mean_motion_ddot": 0,
        "tle_line1": "1 26818U 01023A   25347.55196056  .00000078  00000+0  66333-4 0  9998",
        "tle_line2": "2 26818  82.9272 359.1226 0032442 202.6183 276.3450 13.74142086229345"
      },
      "geometry": {
        "type": "Point",
        "coordinates": [
          -2.3522574887761922,
          -6.783076050828065
        ]
      }
    },
    {
      "type": "Feature",
      "properties": {
        "norad_id": 27436,
        "name": "COSMOS 2389",
        "group": "musson",
        "lat": -26.23729051360144,
        "lon": 129.25188709333966,
        "alt_km": 1017.0917008262322,
        "timestamp": "2025-12-14T09:36:23.306449+00:00",
        "meta_object_name": "COSMOS 2389",
        "meta_object_id": "2002-026A",
        "meta_epoch": "2025-12-13T15:59:03.335712",
        "meta_mean_motion": 13.75154753,
        "meta_eccentricity": 0.00475884,
        "meta_inclination": 82.9504,
        "meta_ra_of_asc_node": 306.2988,
        "meta_arg_of_pericenter": 58.225,
        "meta_mean_anomaly": 114.9064,
        "meta_ephemeris_type": 0,
        "meta_classification_type": "U",
        "meta_norad_cat_id": 27436,
        "meta_element_set_no": 999,
        "meta_rev_at_epoch": 18161,
        "meta_bstar": 8.1415934e-05,
        "meta_mean_motion_dot": 9.4e-07,
        "meta_mean_motion_ddot": 0,
        "tle_line1": "1 27436U 02026A   25347.66601083  .00000094  00000+0  81416-4 0  9999",
        "tle_line2": "2 27436  82.9504 306.2988 0047588  58.2250 114.9064 13.75154753181615"
      },
      "geometry": {
        "type": "Point",
        "coordinates": [
          129.25188709333966,
          -26.23729051360144
        ]
      }
    },
    {
      "type": "Feature",
      "properties": {
        "norad_id": 27818,
        "name": "COSMOS 2398",
        "group": "musson",
        "lat": 37.15314068005678,
        "lon": 86.09305034891399,
        "alt_km": 968.640606391501,
        "timestamp": "2025-12-14T09:36:23.306477+00:00",
        "meta_object_name": "COSMOS 2398",
        "meta_object_id": "2003-023A",
        "meta_epoch": "2025-12-13T12:45:36.530784",
        "meta_mean_motion": 13.7238587,
        "meta_eccentricity": 0.00325945,
        "meta_inclination": 82.9484,
        "meta_ra_of_asc_node": 272.1147,
        "meta_arg_of_pericenter": 109.6813,
        "meta_mean_anomaly": 63.5648,
        "meta_ephemeris_type": 0,
        "meta_classification_type": "U",
        "meta_norad_cat_id": 27818,
        "meta_element_set_no": 999,
        "meta_rev_at_epoch": 12827,
        "meta_bstar": 7.2420371e-05,
        "meta_mean_motion_dot": 8.2e-07,
        "meta_mean_motion_ddot": 0,
        "tle_line1": "1 27818U 03023A   25347.53167281  .00000082  00000+0  72420-4 0  9996",
        "tle_line2": "2 27818  82.9484 272.1147 0032594 109.6813  63.5648 13.72385870128274"
      },
      "geometry": {
        "type": "Point",
        "coordinates": [
          86.09305034891399,
          37.15314068005678
        ]
      }
    },
    {
      "type": "Feature",
      "properties": {
        "norad_id": 28380,
        "name": "COSMOS 2407",
        "group": "musson",
        "lat": 0.9204590471954204,
        "lon": -148.22299190163483,
        "alt_km": 960.3474532677137,
        "timestamp": "2025-12-14T09:36:23.306491+00:00",
        "meta_object_name": "COSMOS 2407",
        "meta_object_id": "2004-028A",
        "meta_epoch": "2025-12-13T16:26:33.230976",
        "meta_mean_motion": 13.76313821,
        "meta_eccentricity": 0.00402912,
        "meta_inclination": 82.9605,
        "meta_ra_of_asc_node": 212.1928,
        "meta_arg_of_pericenter": 52.2746,
        "meta_mean_anomaly": 7.6789,
        "meta_ephemeris_type": 0,
        "meta_classification_type": "U",
        "meta_norad_cat_id": 28380,
        "meta_element_set_no": 999,
        "meta_rev_at_epoch": 7436,
        "meta_bstar": 7.1637929e-05,
        "meta_mean_motion_dot": 8.6e-07,
        "meta_mean_motion_ddot": 0,
        "tle_line1": "1 28380U 04028A   25347.68510684  .00000086  00000+0  71638-4 0  9996",
        "tle_line2": "2 28380  82.9605 212.1928 0040291  52.2746   7.6789 13.76313821 74362"
      },
      "geometry": {
        "type": "Point",
        "coordinates": [
          -148.22299190163483,
          0.9204590471954204
        ]
      }
    },
    {
      "type": "Feature",
      "properties": {
        "norad_id": 28521,
        "name": "COSMOS 2414",
        "group": "musson",
        "lat": -26.01823585125511,
        "lon": 179.94074793016043,
        "alt_km": 969.9357816281008,
        "timestamp": "2025-12-14T09:36:23.306517+00:00",
        "meta_object_name": "COSMOS 2414",
        "meta_object_id": "2005-002A",
        "meta_epoch": "2025-12-13T14:42:03.690144",
        "meta_mean_motion": 13.87903003,
        "meta_eccentricity": 0.00409439,
        "meta_inclination": 82.949,
        "meta_ra_of_asc_node": 184,
        "meta_arg_of_pericenter": 137.2282,
        "meta_mean_anomaly": 223.208,
        "meta_ephemeris_type": 0,
        "meta_classification_type": "U",
        "meta_norad_cat_id": 28521,
        "meta_element_set_no": 999,
        "meta_rev_at_epoch": 5807,
        "meta_bstar": 7.400472e-05,
        "meta_mean_motion_dot": 1.05e-06,
        "meta_mean_motion_ddot": 0,
        "tle_line1": "1 28521U 05002A   25347.61254271  .00000105  00000+0  74005-4 0  9999",
        "tle_line2": "2 28521  82.9490 184.0000 0040943 137.2282 223.2080 13.87903003 58071"
      },
      "geometry": {
        "type": "Point",
        "coordinates": [
          179.94074793016043,
          -26.01823585125511
        ]
      }
    },
    {
      "type": "Feature",
      "properties": {
        "norad_id": 32052,
        "name": "COSMOS 2429",
        "group": "musson",
        "lat": 31.52340538356578,
        "lon": -13.58119160655372,
        "alt_km": 950.4705227731647,
        "timestamp": "2025-12-14T09:36:23.306528+00:00",
        "meta_object_name": "COSMOS 2429",
        "meta_object_id": "2007-038A",
        "meta_epoch": "2025-12-13T12:29:54.943584",
        "meta_mean_motion": 13.7514944,
        "meta_eccentricity": 0.0039197,
        "meta_inclination": 82.9804,
        "meta_ra_of_asc_node": 342.7329,
        "meta_arg_of_pericenter": 35.7287,
        "meta_mean_anomaly": 324.6481,
        "meta_ephemeris_type": 0,
        "meta_classification_type": "U",
        "meta_norad_cat_id": 32052,
        "meta_element_set_no": 999,
        "meta_rev_at_epoch": 91613,
        "meta_bstar": 7.9842155e-05,
        "meta_mean_motion_dot": 9.2e-07,
        "meta_mean_motion_ddot": 0,
        "tle_line1": "1 32052U 07038A   25347.52077481  .00000092  00000+0  79842-4 0  9999",
        "tle_line2": "2 32052  82.9804 342.7329 0039197  35.7287 324.6481 13.75149440916132"
      },
      "geometry": {
        "type": "Point",
        "coordinates": [
          -13.58119160655372,
          31.52340538356578
        ]
      }
    },
    {
      "type": "Feature",
      "properties": {
        "norad_id": 35635,
        "name": "COSMOS 2454",
        "group": "musson",
        "lat": 35.79472774555383,
        "lon": 172.501676241625,
        "alt_km": 913.8726161035693,
        "timestamp": "2025-12-14T09:36:23.306539+00:00",
        "meta_object_name": "COSMOS 2454",
        "meta_object_id": "2009-039A",
        "meta_epoch": "2025-12-13T14:45:00.144000",
        "meta_mean_motion": 13.89928798,
        "meta_eccentricity": 0.00204152,
        "meta_inclination": 82.9554,
        "meta_ra_of_asc_node": 167.9819,
        "meta_arg_of_pericenter": 71.4373,
        "meta_mean_anomaly": 355.7717,
        "meta_ephemeris_type": 0,
        "meta_classification_type": "U",
        "meta_norad_cat_id": 35635,
        "meta_element_set_no": 999,
        "meta_rev_at_epoch": 83162,
        "meta_bstar": 7.9346403e-05,
        "meta_mean_motion_dot": 1.14e-06,
        "meta_mean_motion_ddot": 0,
        "tle_line1": "1 35635U 09039A   25347.61458500  .00000114  00000+0  79346-4 0  9991",
        "tle_line2": "2 35635  82.9554 167.9819 0020415  71.4373 355.7717 13.89928798831624"
      },
      "geometry": {
        "type": "Point",
        "coordinates": [
          172.501676241625,
          35.79472774555383
        ]
      }
    },
    {
      "type": "Feature",
      "properties": {
        "norad_id": 36519,
        "name": "COSMOS 2463",
        "group": "musson",
        "lat": -32.11622935563762,
        "lon": 21.04509002345462,
        "alt_km": 981.2971009087578,
        "timestamp": "2025-12-14T09:36:23.306550+00:00",
        "meta_object_name": "COSMOS 2463",
        "meta_object_id": "2010-017A",
        "meta_epoch": "2025-12-13T15:03:20.925792",
        "meta_mean_motion": 13.71649225,
        "meta_eccentricity": 0.00347907,
        "meta_inclination": 82.9613,
        "meta_ra_of_asc_node": 26.0605,
        "meta_arg_of_pericenter": 285.5162,
        "meta_mean_anomaly": 187.3134,
        "meta_ephemeris_type": 0,
        "meta_classification_type": "U",
        "meta_norad_cat_id": 36519,
        "meta_element_set_no": 999,
        "meta_rev_at_epoch": 78249,
        "meta_bstar": 5.228458e-05,
        "meta_mean_motion_dot": 6.2e-07,
        "meta_mean_motion_ddot": 0,
        "tle_line1": "1 36519U 10017A   25347.62732553  .00000062  00000+0  52285-4 0  9990",
        "tle_line2": "2 36519  82.9613  26.0605 0034790 285.5162 187.3134 13.71649225782493"
      },
      "geometry": {
        "type": "Point",
        "coordinates": [
          21.04509002345462,
          -32.11622935563762
        ]
      }
    }
  ]
}